{
  "norad_id": 67378,
  "name": "AETHER-7",
  "history": [
    {
      "epoch": "2026-03-28T22:48:26.845344Z",
      "apogee_km": 608.9975888876052,
      "perigee_km": 600.3821770793802,
      "latitude_deg": 1.1421099962434763e-05,
      "longitude_deg": -80.64406207961727,
      "height_km": 605.1124448536096,
      "semi_major_axis_km": 6982.826882983492,
      "eccentricity": 0.0006169,
      "inclination_deg": 97.8013,
      "raan_deg": 87.8312,
      "arg_perigee_deg": 52.8237,
      "mean_anomaly_deg": 307.3542,
      "mean_motion_rev_day": 14.87838694
    }
  ]
}